ONEWEB-0012             
1 44057U 19010A   26158.44957029 -.00000025  00000+0 -98180-4 0  9991
2 44057  87.9114 230.7194 0002207  86.6921 273.4462 13.16594599350289
ONEWEB-0010             
1 44058U 19010B   26158.47489994  .00000050  00000+0  97874-4 0  9991
2 44058  87.9100 230.7094 0001775 104.6931 255.4397 13.16594160350332
ONEWEB-0008             
1 44059U 19010C   26158.50023722  .00000093  00000+0  21039-3 0  9995
2 44059  87.9102 230.7000 0002269 101.4621 258.6765 13.16595300350456
ONEWEB-0007             
1 44060U 19010D   26158.52764897  .00000021  00000+0  21898-4 0  9999
2 44060  87.9007 261.1454 0001674  94.6822 265.4500 13.15547849350107
ONEWEB-0006             
1 44061U 19010E   26158.53159987  .00000008  00000+0 -13742-4 0  9994
2 44061  87.9014 261.1079 0001814 101.7843 258.3490 13.15548735350157
ONEWEB-0011             
1 44062U 19010F   26158.27174034  .00000171  00000+0  41887-3 0  9996
2 44062  87.9014 261.1695 0001917 106.6780 253.4561 13.15550454350112
ONEWEB-0013             
1 45131U 20008A   26158.46589223  .00000751  00000+0  21435-2 0  9994
2 45131  87.8527  54.7861 0002631  62.3832 297.7562 13.09458014304796
ONEWEB-0017             
1 45132U 20008B   26158.37866007 -.00000536  00000+0 -15732-2 0  9999
2 45132  87.8851  38.2218 0001518  84.9229 275.2072 13.10370173306669
ONEWEB-0020             
1 45133U 20008C   26158.42516603  .00000609  00000+0  17086-2 0  9993
2 45133  87.8847  38.2112 0001835  80.6559 279.4775 13.10372070307068
ONEWEB-0021             
1 45134U 20008D   26158.36373615  .00000126  00000+0  32484-3 0  9995
2 45134  87.8840  38.2399 0001782  79.6742 280.4586 13.10369739307365
ONEWEB-0023             
1 45136U 20008F   26158.37451634 -.00000361  00000+0 -10702-2 0  9997
2 45136  87.8840  38.2182 0001932  78.2067 281.9277 13.10370348306796
ONEWEB-0024             
1 45137U 20008G   26158.42364203  .00000623  00000+0  17470-2 0  9997
2 45137  87.8854  38.2015 0001825  81.6420 278.4914 13.10371901306963
ONEWEB-0025             
1 45138U 20008H   26158.42336596  .00000621  00000+0  17429-2 0  9994
2 45138  87.8854  38.1909 0002124  94.6045 265.5325 13.10372407307297
ONEWEB-0026             
1 45139U 20008J   26158.31627789  .00000322  00000+0  87357-3 0  9996
2 45139  87.8896  23.0332 0001715  88.6169 271.5156 13.11416063309819
ONEWEB-0028             
1 45140U 20008K   26158.36768818  .00000575  00000+0  16006-2 0  9994
2 45140  87.8899  23.0313 0002131  72.9464 287.1896 13.10857651307330
ONEWEB-0032             
1 45141U 20008L   26158.38045801 -.00000579  00000+0 -16956-2 0  9997
2 45141  87.8860  38.2234 0002105  73.5660 286.5699 13.10370570307014
ONEWEB-0033             
1 45142U 20008M   26158.35544127  .00000551  00000+0  15409-2 0  9990
2 45142  87.8839  38.2361 0001392  96.1398 263.9888 13.10370617306928
ONEWEB-0035             
1 45143U 20008N   26158.37549440 -.00000392  00000+0 -11607-2 0  9997
2 45143  87.8842  38.2256 0001673  85.6780 274.4538 13.10371212306657
ONEWEB-0036             
1 45144U 20008P   26158.42405442  .00000629  00000+0  17789-2 0  9995
2 45144  87.8866  38.2239 0002087  78.8789 281.2572 13.09821502307080
ONEWEB-0038             
1 45145U 20008Q   26158.32658735 -.00000168  00000+0 -50885-3 0  9995
2 45145  87.8910  23.0382 0001208  18.0554 342.0617 13.11414125309037
ONEWEB-0039             
1 45146U 20008R   26158.35876193  .00000137  00000+0  35478-3 0  9994
2 45146  87.8839  38.2251 0002025  67.7158 292.4184 13.10372191306871
ONEWEB-0040             
1 45147U 20008S   26158.19941000  .00000646  00000+0  18144-2 0  9992
2 45147  87.8840  38.2681 0001760  78.7720 281.3605 13.10371059306555
ONEWEB-0043             
1 45149U 20008U   26158.43014588  .00000552  00000+0  15446-2 0  9991
2 45149  87.8846  38.2092 0002192  70.3603 289.7761 13.10371060306903
ONEWEB-0044             
1 45150U 20008V   26158.38198007 -.00000597  00000+0 -17460-2 0  9995
2 45150  87.8851  38.2190 0001871  76.7239 283.4096 13.10371503307194
ONEWEB-0045             
1 45151U 20008W   26157.86358554  .00000115  00000+0  28882-3 0  9998
2 45151  87.8906  23.1135 0001817  79.8386 280.2947 13.11415062309052
ONEWEB-0047             
1 45152U 20008X   26158.37521176 -.00000448  00000+0 -13193-2 0  9997
2 45152  87.8845  38.2192 0001599  79.2503 280.8804 13.10370977306911
ONEWEB-0048             
1 45153U 20008Y   26157.68315029 -.00000344  00000+0 -10216-2 0  9997
2 45153  87.8836  38.3792 0001721  80.1615 279.9706 13.10369521306431
ONEWEB-0049             
1 45154U 20008Z   26158.37355308 -.00000377  00000+0 -11159-2 0  9992
2 45154  87.8839  38.2308 0002194  84.5070 275.6308 13.10370008306742
ONEWEB-0051             
1 45155U 20008AA  26158.31968135  .00000206  00000+0  54467-3 0  9994
2 45155  87.8898  23.0311 0001823  83.9361 276.1974 13.11415112309798
ONEWEB-0052             
1 45156U 20008AB  26158.39374346 -.00000463  00000+0 -13615-2 0  9994
2 45156  87.8847  38.2131 0002237  84.8866 275.2517 13.10374222306651
ONEWEB-0053             
1 45157U 20008AC  26158.42682590  .00000668  00000+0  18771-2 0  9995
2 45157  87.8836  38.2284 0002255  75.3303 284.8074 13.10372146306635
